SatCatId,ObjectName,LaunchYear,OrbitalPeriod,LaunchMass,StatusCode,Inclination,Status,UcsData,OrbitClassEstimated,LaunchSiteCountry,Owner,UseType,Purpose,LaunchVehicleClass,TLE1,TLE2,MeanMotion,Eccentricity,OrbitClass
55664,STARLINK-5480,2023,96.11,290.0,+,70.0,Active,1,LEO,USA,USA,Commercial,Communications,Falcon,1 55664U 23021AN  25019.58576783  .00001405  00000+0  12551-3 0  9996,2 55664  70.0004 128.6448 0003397 272.3342  87.7428 14.98345731107253,14.98345731,0.0003397,LEO
55665,STARLINK-5474,2023,96.11,290.0,+,70.0,Active,1,LEO,USA,USA,Commercial,Communications,Falcon,1 55665U 23021AP  25019.56488881 -.00000610  00000+0 -43341-4 0  9997,2 55665  70.0007 128.5724 0002958 264.2242  95.8580 14.98330905107250,14.98330905,0.0002958,LEO
55667,STARLINK-5456,2023,96.11,290.0,+,70.0,Active,1,LEO,USA,USA,Commercial,Communications,Falcon,1 55667U 23021AR  25019.61912700  .00000123  00000+0  18120-4 0  9991,2 55667  70.0002 128.3615 0002912 267.5160  92.5665 14.98328593107268,14.98328593,0.0002912,LEO
55668,STARLINK-5455,2023,96.11,290.0,+,70.0,Active,1,LEO,USA,USA,Commercial,Communications,Falcon,1 55668U 23021AS  25019.58158490  .00000019  00000+0  93602-5 0  9999,2 55668  70.0001 128.6288 0003096 268.1245  91.9559 14.98330396107250,14.98330396,0.0003096,LEO
55669,STARLINK-5459,2023,96.11,290.0,+,70.0,Active,1,LEO,USA,USA,Commercial,Communications,Falcon,1 55669U 23021AT  25019.57323840  .00000315  00000+0  34175-4 0  9990,2 55669  70.0004 128.6002 0003145 269.5546  90.5253 14.98328301107251,14.98328301,0.0003145,LEO
55670,STARLINK-5423,2023,96.11,290.0,+,70.0,Active,1,LEO,USA,USA,Commercial,Communications,Falcon,1 55670U 23021AU  25019.56071681  .00000098  00000+0  15997-4 0  9993,2 55670  70.0009 128.5569 0003224 269.6853  90.3937 14.98328176107252,14.98328176,0.0003224,LEO
55671,STARLINK-5460,2023,96.11,290.0,+,70.0,Active,1,LEO,USA,USA,Commercial,Communications,Falcon,1 55671U 23021AV  25019.60680174  .00000024  00000+0  97754-5 0  9993,2 55671  70.0013 128.7079 0002826 271.3422  88.7413 14.98323026107254,14.98323026,0.0002826,LEO
55673,STARLINK-5463,2023,96.11,290.0,+,70.0,Active,1,LEO,USA,USA,Commercial,Communications,Falcon,1 55673U 23021AX  25019.55654064 -.00000395  00000+0 -25314-4 0  9993,2 55673  70.0007 128.5413 0003009 266.6449  93.4366 14.98329245107258,14.98329245,0.0003009,LEO
55674,STARLINK-5462,2023,96.11,290.0,+,70.0,Active,1,LEO,USA,USA,Commercial,Communications,Falcon,1 55674U 23021AY  25019.61495298  .00000110  00000+0  17023-4 0  9994,2 55674  70.0008 128.3444 0002842 267.1496  92.9338 14.98328908107263,14.98328908,0.0002842,LEO
55675,STARLINK-5232,2023,96.11,290.0,+,70.0,Active,1,LEO,USA,USA,Commercial,Communications,Falcon,1 55675U 23021AZ  25019.60660975 -.00000685  00000+0 -49618-4 0  9994,2 55675  70.0012 128.3192 0003018 262.6563  97.4253 14.98324158107269,14.98324158,0.0003018,LEO
55676,STARLINK-5300,2023,96.11,290.0,+,70.0,Active,1,LEO,USA,USA,Commercial,Communications,Falcon,1 55676U 23021BA  25019.55649153 -.00001224  00000+0 -94807-4 0  9994,2 55676  70.0007 108.6724 0002993 267.9669  92.1147 14.98321623107743,14.98321623,0.0002993,LEO
55677,STARLINK-5324,2023,96.11,290.0,+,70.0,Active,1,LEO,USA,USA,Commercial,Communications,Falcon,1 55677U 23021BB  25019.61055346  .00001106  00000+0  10045-3 0  9995,2 55677  70.0001 108.4550 0002980 268.4093  91.6725 14.98331888107757,14.98331888,0.000298,LEO
55678,STARLINK-5314,2023,96.11,290.0,+,70.0,Active,1,LEO,USA,USA,Commercial,Communications,Falcon,1 55678U 23021BC  25019.61511642  .00000312  00000+0  33972-4 0  9995,2 55678  70.0004 128.3452 0003028 269.7663  90.3149 14.98328206107266,14.98328206,0.0003028,LEO
55686,ZHONGXING-26,2023,1436.14,5250.0,+,0.07,Active,1,GSO,PRC,China,Commercial,Communications,Long March,1 55686U 23023A   25019.56224372 -.00000342  00000+0  00000+0 0  9996,2 55686   0.0750  78.0572 0002692 291.7884  76.8708  1.00268587  7089,1.00268587,0.0002692,GEO
55690,HORUS 1,2023,94.51,330.0,+,97.4,Active,1,LEO,PRC,Egypt,Government,Earth Observation,Long March,1 55690U 23025A   25019.56517175  .00014768  00000+0  61928-3 0  9995,2 55690  97.3999  98.2039 0002630 122.3189 237.8303 15.23594380105856,15.2359438,0.000263,LEO
55741,STARLINK-5592,2023,96.11,290.0,+,70.0,Active,1,LEO,USA,USA,Commercial,Communications,Falcon,1 55741U 23028A   25019.62006828 -.00000353  00000+0 -21759-4 0  9996,2 55741  69.9997 208.5851 0002878 273.1260  86.9569 14.98332522104207,14.98332522,0.0002878,LEO
55742,STARLINK-5594,2023,96.11,290.0,+,70.0,Active,1,LEO,USA,USA,Commercial,Communications,Falcon,1 55742U 23028B   25019.62424644  .00002128  00000+0  18602-3 0  9999,2 55742  70.0012 208.6000 0003187 276.7364  83.3433 14.98347117104010,14.98347117,0.0003187,LEO
55743,STARLINK-5602,2023,96.11,290.0,+,70.0,Active,1,LEO,USA,USA,Commercial,Communications,Falcon,1 55743U 23028C   25019.56165761 -.00000954  00000+0 -72183-4 0  9997,2 55743  69.9995 208.7833 0002801 270.6647  89.4191 14.98328549104007,14.98328549,0.0002801,LEO
55744,STARLINK-5601,2023,96.11,290.0,+,70.0,Active,1,LEO,USA,USA,Commercial,Communications,Falcon,1 55744U 23028D   25019.62440929  .00000788  00000+0  73878-4 0  9992,2 55744  69.9997 208.5993 0002636 276.1166  83.9692 14.98323624104013,14.98323624,0.0002636,LEO
55745,STARLINK-5565,2023,93.38,290.0,+,70.0,Active,1,LEO,USA,USA,Commercial,Communications,Falcon,1 55745U 23028E   25019.58334491  .01164951  00000+0  24598-1 0  9990,2 55745  69.9986 205.6582 0002958 277.7357  99.5027 15.42255889  5810,15.42255889,0.0002958,LEO
55746,STARLINK-5579,2023,96.11,290.0,+,70.0,Active,1,LEO,USA,USA,Commercial,Communications,Falcon,1 55746U 23028F   25019.59502581  .00000336  00000+0  35992-4 0  9997,2 55746  69.9996 208.4977 0003068 269.5207  90.5600 14.98330880104012,14.9833088,0.0003068,LEO
55747,STARLINK-5539,2023,96.11,290.0,+,70.0,Active,1,LEO,USA,USA,Commercial,Communications,Falcon,1 55747U 23028G   25019.61172076 -.00002910  00000+0 -23622-3 0  9991,2 55747  69.9997 208.5568 0002719 274.6361  85.4487 14.98330551104012,14.98330551,0.0002719,LEO
55748,STARLINK-5580,2023,96.11,290.0,+,70.0,Active,1,LEO,USA,USA,Commercial,Communications,Falcon,1 55748U 23028H   25019.60754592  .00001202  00000+0  10848-3 0  9997,2 55748  69.9992 208.5418 0002892 270.8454  89.2374 14.98327617104011,14.98327617,0.0002892,LEO
55749,STARLINK-5560,2023,96.11,290.0,+,70.0,Active,1,LEO,USA,USA,Commercial,Communications,Falcon,1 55749U 23028J   25019.59921136  .00002083  00000+0  18231-3 0  9998,2 55749  69.9992 208.5116 0003019 270.1483  89.9330 14.98335881104015,14.98335881,0.0003019,LEO
55750,STARLINK-5573,2023,96.11,290.0,+,70.0,Active,1,LEO,USA,USA,Commercial,Communications,Falcon,1 55750U 23028K   25019.60337154  .00000569  00000+0  55444-4 0  9998,2 55750  69.9993 208.5272 0002917 271.0907  88.9918 14.98330377104014,14.98330377,0.0002917,LEO
55751,STARLINK-5577,2023,96.11,290.0,+,70.0,Active,1,LEO,USA,USA,Commercial,Communications,Falcon,1 55751U 23028L   25019.61589651  .00000402  00000+0  41456-4 0  9995,2 55751  69.9992 208.5713 0002994 269.1455  90.9361 14.98338864104019,14.98338864,0.0002994,LEO
55752,STARLINK-5613,2023,96.11,290.0,+,70.0,Active,1,LEO,USA,USA,Commercial,Communications,Falcon,1 55752U 23028M   25019.57831627  .00001751  00000+0  15442-3 0  9997,2 55752  69.9994 208.4376 0003147 270.0060  90.0738 14.98342538104012,14.98342538,0.0003147,LEO
55753,STARLINK-5617,2023,96.11,290.0,+,70.0,Active,1,LEO,USA,USA,Commercial,Communications,Falcon,1 55753U 23028N   25019.59519277  .00000899  00000+0  83171-4 0  9991,2 55753  69.9995 208.4989 0002739 273.4141  86.6705 14.98328554104014,14.98328554,0.0002739,LEO
55754,STARLINK-5612,2023,96.11,290.0,+,70.0,Active,1,LEO,USA,USA,Commercial,Communications,Falcon,1 55754U 23028P   25019.58663768 -.00009627  00000+0 -79979-3 0  9996,2 55754  70.0002 208.4670 0003017 276.0965  83.9850 14.98347940104018,14.9834794,0.0003017,LEO
55755,STARLINK-5619,2023,96.11,290.0,+,70.0,Active,1,LEO,USA,USA,Commercial,Communications,Falcon,1 55755U 23028Q   25019.57431876 -.00000317  00000+0 -18818-4 0  9992,2 55755  70.0002 208.4166 0002676 269.1336  90.9516 14.98330601104017,14.98330601,0.0002676,LEO
55756,STARLINK-5614,2023,96.11,290.0,+,70.0,Active,1,LEO,USA,USA,Commercial,Communications,Falcon,1 55756U 23028R   25019.56998508 -.00000654  00000+0 -47075-4 0  9993,2 55756  70.0000 208.4092 0002423 269.8243  90.2639 14.98325773104011,14.98325773,0.0002423,LEO
55757,STARLINK-5544,2023,96.11,290.0,+,70.0,Active,1,LEO,USA,USA,Commercial,Communications,Falcon,1 55757U 23028S   25019.59085154  .00000574  00000+0  55911-4 0  9998,2 55757  69.9998 208.4822 0002725 271.1744  88.9103 14.98329880104016,14.9832988,0.0002725,LEO
55758,STARLINK-5072,2023,96.11,290.0,+,70.0,Active,1,LEO,USA,USA,Commercial,Communications,Falcon,1 55758U 23028T   25019.58250298 -.00000434  00000+0 -28577-4 0  9996,2 55758  70.0002 208.4522 0002779 268.3465  91.7376 14.98331048104013,14.98331048,0.0002779,LEO
55759,STARLINK-5081,2023,95.27,290.0,+,70.0,Active,1,LEO,USA,USA,Commercial,Communications,Falcon,1 55759U 23028U   25019.58334491  .01167989  00000+0  62953-1 0  9996,2 55759  70.0014 188.4169 0003364 270.8857 277.2539 15.11631089  5718,15.11631089,0.0003364,LEO
55760,STARLINK-5532,2023,96.11,290.0,+,70.0,Active,1,LEO,USA,USA,Commercial,Communications,Falcon,1 55760U 23028V   25019.56580244 -.00000952  00000+0 -71959-4 0  9991,2 55760  70.0002 208.3947 0002931 268.8173  91.2650 14.98337584104018,14.98337584,0.0002931,LEO
55761,STARLINK-5611,2023,96.11,290.0,+,70.0,Active,1,LEO,USA,USA,Commercial,Communications,Falcon,1 55761U 23028W   25019.61166242  .00000413  00000+0  42449-4 0  9998,2 55761  70.0000 188.6762 0003075 270.0991  89.9816 14.98328255104502,14.98328255,0.0003075,LEO
